OBJECT_NAME,OBJECT_ID,EPOCH,MEAN_MOTION,ECCENTRICITY,INCLINATION,RA_OF_ASC_NODE,ARG_OF_PERICENTER,MEAN_ANOMALY,EPHEMERIS_TYPE,CLASSIFICATION_TYPE,NORAD_CAT_ID,ELEMENT_SET_NO,REV_AT_EPOCH,BSTAR,MEAN_MOTION_DOT,MEAN_MOTION_DDOT
SAR-LUPE 2,2007-030A,2026-06-10T07:23:21.988032,15.48986009,.00074593,98.1027,264.8950,147.5811,212.5898,0,U,31797,999,5587,.64887946E-3,.35134E-3,0
SAPPHIRE,2013-009C,2026-06-10T06:14:30.753888,14.35238597,.00099728,98.4259,340.8805,269.7806,90.2237,0,U,39088,999,69558,.49855086E-4,.1E-5,0
PRAETORIAN SDA_602,2025-203A,2026-06-10T02:03:11.233152,13.84342158,.00054173,81.3036,17.3479,204.3292,155.7610,0,U,65565,999,3771,.2872638E-4,.44E-6,0
PRAETORIAN SDA_603,2025-203B,2026-06-10T02:38:23.092800,13.83905242,.00090032,81.3039,17.2373,207.3625,152.7059,0,U,65566,999,3772,.10333345E-3,.126E-5,0
PRAETORIAN SDA_604,2025-203C,2026-06-10T01:16:17.277600,13.83047027,.00049076,81.3058,17.6910,212.6262,147.4591,0,U,65567,999,3769,.70434019E-4,.89E-6,0
PRAETORIAN SDA_605,2025-203D,2026-06-10T02:13:22.840608,13.83433749,.00077281,81.3023,17.3241,202.8494,157.2320,0,U,65568,999,3771,.35974673E-4,.51E-6,0
PRAETORIAN SDA_606,2025-203E,2026-06-10T01:48:03.079296,13.83406668,.00053381,81.3059,17.5593,201.2875,158.8060,0,U,65569,999,3770,.39315327E-4,.55E-6,0
PRAETORIAN SDA_607,2025-203F,2026-06-10T02:06:06.199200,13.84283990,.00082782,81.3042,17.2218,207.6571,152.4147,0,U,65570,999,3772,.85205172E-4,.107E-5,0
PRAETORIAN SDA_608,2025-203G,2026-06-10T01:30:06.397920,13.83816366,.00054324,81.3010,17.4040,211.7618,148.3212,0,U,65571,999,3770,.54180283E-4,.72E-6,0
PRAETORIAN SDA_609,2025-203H,2026-06-10T01:40:13.540224,13.84284255,.0006344,81.3055,17.3821,204.4939,155.5918,0,U,65572,999,3771,.52469419E-4,.7E-6,0
PRAETORIAN SDA_610,2025-203J,2026-06-10T01:01:12.829440,13.83851458,.00060917,81.3012,17.3808,208.9056,151.1764,0,U,65573,999,3770,.37543005E-4,.53E-6,0
PRAETORIAN SDA_611,2025-203K,2026-06-10T00:58:18.304896,13.83308786,.00049556,81.3022,17.5427,216.0214,144.0609,0,U,65574,999,3769,.31256465E-3,.355E-5,0
PRAETORIAN SDA_612,2025-203L,2026-06-10T02:40:12.959904,13.85038432,.00087286,81.3030,17.0809,206.8162,153.2545,0,U,65575,999,3773,.10536357E-3,.131E-5,0
PRAETORIAN SDA_613,2025-203M,2026-06-10T01:03:58.401216,13.82764565,.0005185,81.3004,17.5303,204.4649,155.6262,0,U,65576,999,3769,.38045518E-4,.53E-6,0
PRAETORIAN SDA_614,2025-203N,2026-06-10T02:22:42.705696,13.84777798,.00066515,81.3019,17.1679,203.6768,156.4083,0,U,65577,999,3773,.28653887E-4,.44E-6,0
PRAETORIAN SDA_615,2025-203P,2026-06-10T01:46:54.545952,13.84435427,.00085831,81.3031,17.1491,204.8580,155.2165,0,U,65578,999,3772,.13445852E-3,.162E-5,0
PRAETORIAN SDA_616,2025-203Q,2026-06-10T00:56:51.887616,13.83267126,.00048956,81.3064,17.6840,213.6954,146.3892,0,U,65579,999,3769,.16092749E-3,.188E-5,0
PRAETORIAN SDA_617,2025-203R,2026-06-10T01:27:05.913504,13.83149909,.00068852,81.3040,17.4962,204.2796,155.8037,0,U,65580,999,3770,.28225509E-4,.43E-6,0
PRAETORIAN SDA_618,2025-203S,2026-06-10T02:43:47.926560,13.84669032,.00092255,81.3024,17.0464,207.8098,152.2567,0,U,65581,999,3773,.99448995E-4,.124E-5,0
PRAETORIAN SDA_619,2025-203T,2026-06-10T01:45:05.580000,13.83805383,.0007716,81.3054,17.3692,205.3983,154.6795,0,U,65582,999,3834,.71464529E-4,.91E-6,0
PRAETORIAN SDA_620,2025-203U,2026-06-10T02:24:00.581472,13.83617436,.00071053,81.3035,17.3642,201.0906,158.9958,0,U,65583,999,3771,.16762578E-3,.197E-5,0
PRAETORIAN SDA_621,2025-203V,2026-06-10T01:47:36.793824,13.83800780,.00069745,81.3025,17.3087,198.5568,161.5335,0,U,65584,999,3771,.5097127E-4,.68E-6,0
PRAETORIAN SDA_601,2025-203W,2026-06-10T01:00:38.126880,13.83167067,.00048786,81.3050,17.6273,217.1392,142.9427,0,U,65585,999,3769,.10363542E-3,.125E-5,0
