SAR-LUPE 2              
1 31797U 07030A   26161.30789338  .00035134  00000+0  64888-3 0  9996
2 31797  98.1027 264.8950 0007459 147.5811 212.5898 15.48986009 55872
SAPPHIRE                
1 39088U 13009C   26161.26007817  .00000100  00000+0  49855-4 0  9993
2 39088  98.4259 340.8805 0009972 269.7806  90.2237 14.35238597695583
PRAETORIAN SDA_602      
1 65565U 25203A   26161.08554668  .00000044  00000+0  28726-4 0  9993
2 65565  81.3036  17.3479 0005417 204.3292 155.7610 13.84342158 37712
PRAETORIAN SDA_603      
1 65566U 25203B   26161.10998950  .00000126  00000+0  10333-3 0  9998
2 65566  81.3039  17.2373 0009003 207.3625 152.7059 13.83905242 37729
PRAETORIAN SDA_604      
1 65567U 25203C   26161.05297775  .00000089  00000+0  70434-4 0  9997
2 65567  81.3058  17.6910 0004907 212.6262 147.4591 13.83047027 37692
PRAETORIAN SDA_605      
1 65568U 25203D   26161.09262547  .00000051  00000+0  35975-4 0  9991
2 65568  81.3023  17.3241 0007728 202.8494 157.2320 13.83433749 37713
PRAETORIAN SDA_606      
1 65569U 25203E   26161.07503564  .00000055  00000+0  39315-4 0  9993
2 65569  81.3059  17.5593 0005338 201.2875 158.8060 13.83406668 37703
PRAETORIAN SDA_607      
1 65570U 25203F   26161.08757175  .00000107  00000+0  85205-4 0  9992
2 65570  81.3042  17.2218 0008278 207.6571 152.4147 13.84283990 37727
PRAETORIAN SDA_608      
1 65571U 25203G   26161.06257405  .00000072  00000+0  54180-4 0  9991
2 65571  81.3010  17.4040 0005432 211.7618 148.3212 13.83816366 37708
PRAETORIAN SDA_609      
1 65572U 25203H   26161.06960116  .00000070  00000+0  52469-4 0  9998
2 65572  81.3055  17.3821 0006344 204.4939 155.5918 13.84284255 37713
PRAETORIAN SDA_610      
1 65573U 25203J   26161.04250960  .00000053  00000+0  37543-4 0  9993
2 65573  81.3012  17.3808 0006091 208.9056 151.1764 13.83851458 37704
PRAETORIAN SDA_611      
1 65574U 25203K   26161.04048964  .00000355  00000+0  31256-3 0  9992
2 65574  81.3022  17.5427 0004955 216.0214 144.0609 13.83308786 37696
PRAETORIAN SDA_612      
1 65575U 25203L   26161.11126111  .00000131  00000+0  10536-3 0  9992
2 65575  81.3030  17.0809 0008728 206.8162 153.2545 13.85038432 37732
PRAETORIAN SDA_613      
1 65576U 25203M   26161.04442594  .00000053  00000+0  38046-4 0  9991
2 65576  81.3004  17.5303 0005185 204.4649 155.6262 13.82764565 37693
PRAETORIAN SDA_614      
1 65577U 25203N   26161.09910539  .00000044  00000+0  28654-4 0  9990
2 65577  81.3019  17.1679 0006651 203.6768 156.4083 13.84777798 37733
PRAETORIAN SDA_615      
1 65578U 25203P   26161.07424243  .00000162  00000+0  13446-3 0  9994
2 65578  81.3031  17.1491 0008583 204.8580 155.2165 13.84435427 37728
PRAETORIAN SDA_616      
1 65579U 25203Q   26161.03948944  .00000188  00000+0  16093-3 0  9999
2 65579  81.3064  17.6840 0004895 213.6954 146.3892 13.83267126 37695
PRAETORIAN SDA_617      
1 65580U 25203R   26161.06048511  .00000043  00000+0  28226-4 0  9997
2 65580  81.3040  17.4962 0006885 204.2796 155.8037 13.83149909 37701
PRAETORIAN SDA_618      
1 65581U 25203S   26161.11374915  .00000124  00000+0  99449-4 0  9999
2 65581  81.3024  17.0464 0009225 207.8098 152.2567 13.84669032 37739
PRAETORIAN SDA_619      
1 65582U 25203T   26161.07298125  .00000091  00000+0  71465-4 0  9994
2 65582  81.3054  17.3692 0007716 205.3983 154.6795 13.83805383 38345
PRAETORIAN SDA_620      
1 65583U 25203U   26161.10000673  .00000197  00000+0  16763-3 0  9994
2 65583  81.3035  17.3642 0007105 201.0906 158.9958 13.83617436 37718
PRAETORIAN SDA_621      
1 65584U 25203V   26161.07473141  .00000068  00000+0  50971-4 0  9992
2 65584  81.3025  17.3087 0006974 198.5568 161.5335 13.83800780 37713
PRAETORIAN SDA_601      
1 65585U 25203W   26161.04210795  .00000125  00000+0  10364-3 0  9999
2 65585  81.3050  17.6273 0004878 217.1392 142.9427 13.83167067 37692
